ONEWEB-0134             
1 47280U 20100Y   23274.03385820 -.00000287  00000+0 -83212-3 0  9998
2 47280  87.9074 187.5155 0001989  63.9403 296.1930 13.12445260134839
ONEWEB-0135             
1 47281U 20100Z   23273.16348075  .00000038  00000+0  69833-4 0  9999
2 47281  87.9074 187.6898 0001909  68.7521 291.3812 13.12443451134747
ONEWEB-0136             
1 47282U 20100AA  23274.02325709 -.00000491  00000+0 -14004-2 0  9998
2 47282  87.9005 187.5325 0002008  55.2643 304.8674 13.12440375134785
ONEWEB-0137             
1 47283U 20100AB  23274.05927608  .00000496  00000+0  13424-2 0  9996
2 47283  87.9071 187.5183 0001728  71.6030 288.5286 13.12444988134692
ONEWEB-0138             
1 47284U 20100AC  23273.19737393 -.00000011  00000+0 -66648-4 0  9994
2 47284  87.9072 187.6990 0001861  69.7847 290.3482 13.12444158134668
ONEWEB-0139             
1 47285U 20100AD  23274.00843972 -.00000226  00000+0 -66226-3 0  9996
2 47285  87.9013 187.5423 0001956  69.8064 290.3274 13.12440464134846
ONEWEB-0140             
1 47286U 20100AE  23273.19101206 -.00000090  00000+0 -28451-3 0  9990
2 47286  87.9071 187.6752 0001954  67.1673 292.9662 13.12445315134706
ONEWEB-0141             
1 47287U 20100AF  23273.21324937  .00000496  00000+0  13428-2 0  9997
2 47287  87.9071 187.6677 0001680  82.1490 277.9830 13.12443422134698
